{
  "type": "FeatureCollection",
  "features": [
    {
      "type": "Feature",
      "properties": {
        "tiger_id": "T17",
        "type": "core",
        "utilization": 50,
        "area_km2": 6.77,
        "bandwidth_m": 500,
        "independent_detections": 8
      },
      "geometry": {
        "type": "Polygon",
        "coordinates": [
          [
            [
              79.15043807383286,
              21.26228137368196
            ],
            [
              79.15083199722062,
              21.262285697386567
            ],
            [
              79.15122592070777,
              21.262290020171356
            ],
            [
              79.15201950948232,
              21.26183867461929
            ],
            [
              79.15241917217122,
              21.261383006051222
            ],
            [
              79.15282457095675,
              21.260467347685726
            ],
            [
              79.15283030939837,
              21.260007359012658
            ],
            [
              79.15283604768594,
              21.259547370313037
            ],
            [
              79.15284178581946,
              21.259087381586856
            ],
            [
              79.15284752379894,
              21.25862739283411
            ],
            [
              79.1528532616244,
              21.2581674040548
            ],
            [
              79.15247082637094,
              21.257243108436136
            ],
            [
              79.15170022840836,
              21.255854503980746
            ],
            [
              79.15054148527052,
              21.254001586468014
            ],
            [
              79.1493827698781,
              21.252148662713026
            ],
            [
              79.14899462165198,
              21.25168434945629
            ],
            [
              79.14860647581384,
              21.25122003545866
            ],
            [
              79.14821833236358,
              21.250755720720175
            ],
            [
              79.14704816312111,
              21.24982275980782
            ],
            [
              79.14547836419875,
              21.249345446426165
            ],
            [
              79.1450844764126,
              21.24934111271964
            ],
            [
              79.1446905887261,
              21.24933677809392
            ],
            [
              79.13376605278626,
              21.240935314395077
            ],
            [
              79.13377184457129,
              21.24047532964318
            ],
            [
              79.13377763620075,
              21.240015344864705
            ],
            [
              79.13339536106463,
              21.239091016219422
            ],
            [
              79.13301309028839,
              21.23816668696252
            ],
            [
              79.13153042184058,
              21.23078948704818
            ],
            [
              79.13987598636123,
              21.224901059196732
            ],
            [
              79.1402698080707,
              21.22490540031426
            ],
            [
              79.14263849993695,
              21.224471439791927
            ],
            [
              79.1438257195017,
              21.22402445251965
            ],
            [
              79.14501868422461,
              21.223117467697403
            ],
            [
              79.14541825271134,
              21.22266180769561
            ],
            [
              79.14581781870442,
              21.22220614654401
            ],
            [
              79.14621738220391,
              21.221750484242698
            ],
            [
              79.14662268929261,
              21.22083483160352
            ],
            [
              79.14702799098623,
              21.219919177529984
            ],
            [
              79.14703373538654,
              21.21945918815959
            ],
            [
              79.14703947963248,
              21.218999198762663
            ],
            [
              79.14704522372404,
              21.218539209339227
            ],
            [
              79.1470509676612,
              21.218079219889237
            ],
            [
              79.1466743970884,
              21.216694927715686
            ],
            [
              79.14590403493665,
              21.21530630980938
            ],
            [
              79.14473414291108,
              21.21437335066189
            ],
            [
              79.14395230577543,
              21.21390470356322
            ],
            [
              79.14277668182808,
              21.213431721057535
            ],
            [
              79.14238288999725,
              21.21342738801868
            ],
            [
              79.14198909826615,
              21.21342305406234
            ],
            [
              79.14159530663478,
              21.213418719188503
            ],
            [
              79.14120151510318,
              21.213414383397183
            ],
            [
              79.14080772367136,
              21.21341004668837
            ],
            [
              79.14041393233933,
              21.213405709062084
            ],
            [
              79.14002014110714,
              21.21340137051831
            ],
            [
              79.13843920797198,
              21.213843994622007
            ],
            [
              79.13764585237146,
              21.214295294457
            ],
            [
              79.13724628622975,
              21.214750936375985
            ],
            [
              79.1368467175953,
              21.215206577144684
            ],
            [
              79.13644714646807,
              21.215662216763018
            ],
            [
              79.13604757284799,
              21.21611785523092
            ],
            [
              79.13564799673493,
              21.216573492548328
            ],
            [
              79.13524841812887,
              21.217029128715165
            ],
            [
              79.12489920636082,
              21.22565538300217
            ],
            [
              79.12410574869008,
              21.226106610841956
            ],
            [
              79.12211334827853,
              21.22792463603188
            ],
            [
              79.12171369725226,
              21.22838023421484
            ],
            [
              79.12050889952093,
              21.230207003685393
            ],
            [
              79.12010340592249,
              21.231122578807426
            ],
            [
              79.11969790691882,
              21.232038152488574
            ],
            [
              79.11928656807103,
              21.233413706068443
            ],
            [
              79.11718299557545,
              21.24397128963034
            ],
            [
              79.11717715127052,
              21.24443126981094
            ],
            [
              79.11717130680864,
              21.244891249964915
            ],
            [
              79.11755348952445,
              21.24581560843039
            ],
            [
              79.11794151924516,
              21.246279986031322
            ],
            [
              79.118329551352,
              21.24674436289504
            ],
            [
              79.11871758584506,
              21.24720873902148
            ],
            [
              79.11911146202287,
              21.247213133895304
            ],
            [
              79.1195053383017,
              21.24721752785008
            ],
            [
              79.11989921468158,
              21.247221920885806
            ],
            [
              79.12029309116248,
              21.2472263130025
            ],
            [
              79.12068696774433,
              21.247230704200142
            ],
            [
              79.12108084442717,
              21.247235094478732
            ],
            [
              79.12147472121094,
              21.247239483838285
            ],
            [
              79.12186859809565,
              21.247243872278784
            ],
            [
              79.12226247508124,
              21.247248259800234
            ],
            [
              79.12305605628649,
              21.246797050503872
            ],
            [
              79.12384963285454,
              21.246345837089127
            ],
            [
              79.12464320478543,
              21.245894619556275
            ],
            [
              79.12899324860908,
              21.244562807820373
            ],
            [
              79.13096840855141,
              21.24412466660018
            ],
            [
              79.1422868863328,
              21.252530656082783
            ],
            [
              79.14228111737488,
              21.252990642411675
            ],
            [
              79.14227534826207,
              21.253450628713992
            ],
            [
              79.14226957899434,
              21.25391061498975
            ],
            [
              79.14265194173962,
              21.254834928836488
            ],
            [
              79.14303430885174,
              21.255759242068827
            ],
            [
              79.14419296565296,
              21.25761220500351
            ],
            [
              79.14535165019988,
              21.259465161702778
            ],
            [
              79.14573980467755,
              21.259929483604015
            ],
            [
              79.14612796154425,
              21.260393804764316
            ],
            [
              79.14651612080007,
              21.260858125183606
            ],
            [
              79.14690428244508,
              21.261322444861843
            ],
            [
              79.14729244647938,
              21.26178676379894
            ],
            [
              79.14807453559452,
              21.262255412138153
            ],
            [
              79.14846845838555,
              21.262259741361657
            ],
            [
              79.14886238127609,
              21.262264069665353
            ],
            [
              79.1492563042661,
              21.262268397049226
            ],
            [
              79.14965022735558,
              21.262272723513284
            ],
            [
              79.1500441505445,
              21.26227704905753
            ],
            [
              79.15043807383286,
              21.26228137368196
            ]
          ]
        ]
      }
    },
    {
      "type": "Feature",
      "properties": {
        "tiger_id": "T17",
        "type": "range",
        "utilization": 95,
        "area_km2": 19.28,
        "bandwidth_m": 500,
        "independent_detections": 8
      },
      "geometry": {
        "type": "Polygon",
        "coordinates": [
          [
            [
              79.15193337076543,
              21.268738497262696
            ],
            [
              79.15351487372749,
              21.268295789173543
            ],
            [
              79.15430849014436,
              21.26784443497303
            ],
            [
              79.15510210191368,
              21.2673930766568
            ],
            [
              79.15589570903552,
              21.266941714225123
            ],
            [
              79.15708897448354,
              21.26603466813259
            ],
            [
              79.15748863495762,
              21.26557898743631
            ],
            [
              79.15869332272203,
              21.263751948451844
            ],
            [
              79.15909869163225,
              21.26283627287774
            ],
            [
              79.15951549123875,
              21.26100061518538
            ],
            [
              79.15952120905874,
              21.260540624803344
            ],
            [
              79.15952692672523,
              21.260080634394736
            ],
            [
              79.15953264423825,
              21.259620643959583
            ],
            [
              79.15953836159778,
              21.259160653497887
            ],
            [
              79.15916731737423,
              21.25731638903826
            ],
            [
              79.15878484326443,
              21.25639210496359
            ],
            [
              79.15840237352661,
              21.255467820270944
            ],
            [
              79.1580199081604,
              21.254543534960433
            ],
            [
              79.15724926800114,
              21.253154952708012
            ],
            [
              79.15609047058243,
              21.251302069289217
            ],
            [
              79.15493170090971,
              21.249449179622005
            ],
            [
              79.15454354059806,
              21.24898487825713
            ],
            [
              79.15415538267419,
              21.248520576150863
            ],
            [
              79.15376722713806,
              21.24805627330326
            ],
            [
              79.15337907398957,
              21.247591969714396
            ],
            [
              79.15299092322864,
              21.247127665384326
            ],
            [
              79.1526027748552,
              21.246663360313114
            ],
            [
              79.15221462886915,
              21.24619905450084
            ],
            [
              79.15182648527043,
              21.245734747947534
            ],
            [
              79.15143834405897,
              21.245270440653304
            ],
            [
              79.1506563282666,
              21.24480181280427
            ],
            [
              79.14987431760127,
              21.24433318166226
            ],
            [
              79.14909231206289,
              21.24386454722756
            ],
            [
              79.14752256653198,
              21.243387256702977
            ],
            [
              79.14555896141418,
              21.24290562091954
            ],
            [
              79.14010827390518,
              21.237785034819016
            ],
            [
              79.14415623197876,
              21.229088655043117
            ],
            [
              79.14613690159513,
              21.22819032828355
            ],
            [
              79.14693031255854,
              21.227738992767076
            ],
            [
              79.14812329189908,
              21.226831987156963
            ],
            [
              79.14852286241728,
              21.22637632002318
            ],
            [
              79.14892243044137,
              21.225920651739777
            ],
            [
              79.1493219959714,
              21.225464982306796
            ],
            [
              79.1497215590075,
              21.22500931172432
            ],
            [
              79.1501211195497,
              21.224553639992415
            ],
            [
              79.15052067759807,
              21.224097967111142
            ],
            [
              79.15132551828147,
              21.222726627589115
            ],
            [
              79.15173079801585,
              21.22181096066425
            ],
            [
              79.15214752992065,
              21.2199753109818
            ],
            [
              79.15215325847193,
              21.219515320279836
            ],
            [
              79.15215898686924,
              21.219055329551352
            ],
            [
              79.15216471511262,
              21.21859533879635
            ],
            [
              79.15217044320202,
              21.218135348014822
            ],
            [
              79.15217617113748,
              21.217675357206787
            ],
            [
              79.15218189891901,
              21.217215366372216
            ],
            [
              79.15180528102809,
              21.215831082179115
            ],
            [
              79.15142293986848,
              21.21490678823261
            ],
            [
              79.15104060306739,
              21.213982493671747
            ],
            [
              79.15027021035786,
              21.212593893322076
            ],
            [
              79.1498821524738,
              21.21212958740828
            ],
            [
              79.14832420710343,
              21.210732346570776
            ],
            [
              79.1475423754714,
              21.210263716492186
            ],
            [
              79.1467605489567,
              21.209795083127823
            ],
            [
              79.14597872755934,
              21.209326446477966
            ],
            [
              79.14440935089208,
              21.20884915261132
            ],
            [
              79.14401557084788,
              21.20884482426965
            ],
            [
              79.14362179090332,
              21.20884049501069
            ],
            [
              79.1432280110584,
              21.20883616483447
            ],
            [
              79.14283423131316,
              21.20883183374097
            ],
            [
              79.14244045166758,
              21.208827501730198
            ],
            [
              79.14204667212172,
              21.208823168802162
            ],
            [
              79.1416528926756,
              21.208818834956848
            ],
            [
              79.1412591133292,
              21.208814500194265
            ],
            [
              79.14086533408259,
              21.208810164514418
            ],
            [
              79.14047155493576,
              21.2088058279173
            ],
            [
              79.14007777588874,
              21.208801490402923
            ],
            [
              79.13968399694157,
              21.208797151971275
            ],
            [
              79.13929021809425,
              21.208792812622363
            ],
            [
              79.1388964393468,
              21.208788472356183
            ],
            [
              79.13850266069925,
              21.208784131172752
            ],
            [
              79.13731555404662,
              21.20923108952864
            ],
            [
              79.13612844082846,
              21.209678038983878
            ],
            [
              79.13533510244771,
              21.210129329286303
            ],
            [
              79.13414219533935,
              21.211036250271878
            ],
            [
              79.13294927388876,
              21.21194316165573
            ],
            [
              79.13254970119446,
              21.2123987919752
            ],
            [
              79.12180688481351,
              21.221020514922724
            ],
            [
              79.12101344495164,
              21.221471729588174
            ],
            [
              79.1198203617293,
              21.22237853491028
            ],
            [
              79.11942072050441,
              21.222834128528234
            ],
            [
              79.11902107678522,
              21.22328972099353
            ],
            [
              79.11862143057164,
              21.223745312306097
            ],
            [
              79.11822178186361,
              21.224200902465874
            ],
            [
              79.11782213066104,
              21.22465649147279
            ],
            [
              79.11742247696388,
              21.225112079326763
            ],
            [
              79.11702282077202,
              21.225567666027754
            ],
            [
              79.1166231620854,
              21.226023251575675
            ],
            [
              79.11622350090396,
              21.22647883597047
            ],
            [
              79.11501865625912,
              21.22830556272113
            ],
            [
              79.1146131360562,
              21.22922112269998
            ],
            [
              79.11420761044711,
              21.230136681236807
            ],
            [
              79.1138020794315,
              21.231052238331472
            ],
            [
              79.11339069058462,
              21.232427773812656
            ],
            [
              79.11090458748936,
              21.242060885230078
            ],
            [
              79.11048726820854,
              21.243896386095013
            ],
            [
              79.11048140315,
              21.24435636450045
            ],
            [
              79.11047553793398,
              21.244816342879265
            ],
            [
              79.11046967256044,
              21.245276321231476
            ],
            [
              79.11046380702936,
              21.24573629955707
            ],
            [
              79.11083421860177,
              21.247580626871375
            ],
            [
              79.11121636606451,
              21.24850499700719
            ],
            [
              79.1119865362799,
              21.249893756979123
            ],
            [
              79.11237455706296,
              21.250358146685826
            ],
            [
              79.11276258023254,
              21.250822535655743
            ],
            [
              79.11432055245784,
              21.252220105194855
            ],
            [
              79.11510247631767,
              21.252688895718656
            ],
            [
              79.116278296657,
              21.253162085619067
            ],
            [
              79.1174541250789,
              21.253635267844743
            ],
            [
              79.117848018051,
              21.253639666934642
            ],
            [
              79.11824191112426,
              21.253644065105203
            ],
            [
              79.1186358042986,
              21.25364846235642
            ],
            [
              79.11902969757405,
              21.253652858688287
            ],
            [
              79.11942359095056,
              21.25365725410081
            ],
            [
              79.11981748442813,
              21.253661648593987
            ],
            [
              79.1202113780067,
              21.253666042167804
            ],
            [
              79.1206052716863,
              21.253670434822276
            ],
            [
              79.12099916546688,
              21.253674826557397
            ],
            [
              79.12139305934842,
              21.25367921737317
            ],
            [
              79.1217869533309,
              21.253683607269586
            ],
            [
              79.1221808474143,
              21.25368799624664
            ],
            [
              79.12257474159861,
              21.253692384304344
            ],
            [
              79.12415614480227,
              21.253249945820205
            ],
            [
              79.13748494735555,
              21.258458298182266
            ],
            [
              79.13864354980886,
              21.260311295190547
            ],
            [
              79.13980218000731,
              21.262164285969586
            ],
            [
              79.14173714156342,
              21.26494593307704
            ],
            [
              79.14212529695202,
              21.26541026324597
            ],
            [
              79.14368371127482,
              21.266807590596848
            ],
            [
              79.14446581278554,
              21.267276256536785
            ],
            [
              79.14524791943059,
              21.26774491918096
            ],
            [
              79.14642396939423,
              21.268217913685966
            ],
            [
              79.14760002743559,
              21.268690900499372
            ],
            [
              79.14799396724086,
              21.268695232078457
            ],
            [
              79.14838790714569,
              21.268699562737424
            ],
            [
              79.14878184715005,
              21.26870389247627
            ],
            [
              79.14917578725392,
              21.268708221294997
            ],
            [
              79.14956972745726,
              21.26871254919361
            ],
            [
              79.14996366776009,
              21.268716876172096
            ],
            [
              79.15035760816235,
              21.268721202230466
            ],
            [
              79.15075154866405,
              21.26872552736871
            ],
            [
              79.15114548926515,
              21.268729851586837
            ],
            [
              79.15153942996561,
              21.26873417488483
            ],
            [
              79.15193337076543,
              21.268738497262696
            ]
          ]
        ]
      }
    },
    {
      "type": "Feature",
      "properties": {
        "tiger_id": "T17",
        "type": "detection",
        "camera_id": "CAM_01",
        "timestamp": "2026-08-01T18:30:00",
        "hour": 18,
        "month": 8,
        "is_night": true
      },
      "geometry": {
        "type": "Point",
        "coordinates": [
          79.123,
          21.234
        ]
      }
    },
    {
      "type": "Feature",
      "properties": {
        "tiger_id": "T17",
        "type": "detection",
        "camera_id": "CAM_02",
        "timestamp": "2026-08-03T20:15:00",
        "hour": 20,
        "month": 8,
        "is_night": true
      },
      "geometry": {
        "type": "Point",
        "coordinates": [
          79.131,
          21.241
        ]
      }
    },
    {
      "type": "Feature",
      "properties": {
        "tiger_id": "T17",
        "type": "detection",
        "camera_id": "CAM_03",
        "timestamp": "2026-08-07T01:20:00",
        "hour": 1,
        "month": 8,
        "is_night": true
      },
      "geometry": {
        "type": "Point",
        "coordinates": [
          79.145,
          21.252
        ]
      }
    },
    {
      "type": "Feature",
      "properties": {
        "tiger_id": "T17",
        "type": "detection",
        "camera_id": "CAM_04",
        "timestamp": "2026-08-09T23:20:00",
        "hour": 23,
        "month": 8,
        "is_night": true
      },
      "geometry": {
        "type": "Point",
        "coordinates": [
          79.15,
          21.26
        ]
      }
    },
    {
      "type": "Feature",
      "properties": {
        "tiger_id": "T17",
        "type": "detection",
        "camera_id": "CAM_06",
        "timestamp": "2026-08-12T19:20:00",
        "hour": 19,
        "month": 8,
        "is_night": true
      },
      "geometry": {
        "type": "Point",
        "coordinates": [
          79.12,
          21.245
        ]
      }
    },
    {
      "type": "Feature",
      "properties": {
        "tiger_id": "T17",
        "type": "detection",
        "camera_id": "CAM_07",
        "timestamp": "2026-08-16T22:10:00",
        "hour": 22,
        "month": 8,
        "is_night": true
      },
      "geometry": {
        "type": "Point",
        "coordinates": [
          79.128,
          21.228
        ]
      }
    },
    {
      "type": "Feature",
      "properties": {
        "tiger_id": "T17",
        "type": "detection",
        "camera_id": "CAM_08",
        "timestamp": "2026-08-19T00:30:00",
        "hour": 0,
        "month": 8,
        "is_night": true
      },
      "geometry": {
        "type": "Point",
        "coordinates": [
          79.14,
          21.22
        ]
      }
    },
    {
      "type": "Feature",
      "properties": {
        "tiger_id": "T17",
        "type": "detection",
        "camera_id": "CAM_10",
        "timestamp": "2026-08-22T19:50:00",
        "hour": 19,
        "month": 8,
        "is_night": true
      },
      "geometry": {
        "type": "Point",
        "coordinates": [
          79.142,
          21.218
        ]
      }
    },
    {
      "type": "Feature",
      "properties": {
        "tiger_id": "T21",
        "type": "core",
        "utilization": 50,
        "area_km2": 8.59,
        "bandwidth_m": 500,
        "independent_detections": 7
      },
      "geometry": {
        "type": "Polygon",
        "coordinates": [
          [
            [
              79.15581259604289,
              21.23381701479029
            ],
            [
              79.15621821074927,
              21.23382144905604
            ],
            [
              79.15662382556066,
              21.233825882347613
            ],
            [
              79.1574407717558,
              21.233374754686107
            ],
            [
              79.15785210047271,
              21.23291919349642
            ],
            [
              79.15826342662788,
              21.232463631096014
            ],
            [
              79.15867475022142,
              21.23200806748496
            ],
            [
              79.15908607125336,
              21.231552502663334
            ],
            [
              79.15909178171707,
              21.231092510788567
            ],
            [
              79.15909749202736,
              21.230632518887294
            ],
            [
              79.15910320218424,
              21.230172526959485
            ],
            [
              79.15910891218769,
              21.229712535005156
            ],
            [
              79.15911462203773,
              21.229252543024305
            ],
            [
              79.15912033173437,
              21.228792551016934
            ],
            [
              79.15872615155976,
              21.2278681408407
            ],
            [
              79.1583262643058,
              21.227403721907912
            ],
            [
              79.15792637951559,
              21.226939302184725
            ],
            [
              79.15712090226951,
              21.226470452008936
            ],
            [
              79.15590983696556,
              21.225997165853023
            ],
            [
              79.14628482924847,
              21.21715070206204
            ],
            [
              79.1458907565093,
              21.216226268778165
            ],
            [
              79.14549094035081,
              21.21576182403288
            ],
            [
              79.14509112665397,
              21.21529737849926
            ],
            [
              79.1446913154187,
              21.21483293217736
            ],
            [
              79.14388594784711,
              21.214364026020746
            ],
            [
              79.14226947121898,
              21.213886191674632
            ],
            [
              79.14186391420496,
              21.213881727868166
            ],
            [
              79.14023592342537,
              21.214323850809315
            ],
            [
              79.1394190416044,
              21.21477489993958
            ],
            [
              79.13900771496392,
              21.21523041663622
            ],
            [
              79.13859638576395,
              21.215685932120937
            ],
            [
              79.1381850540044,
              21.216141446393664
            ],
            [
              79.1263250481996,
              21.223831030167396
            ],
            [
              79.12591946770908,
              21.22382652605894
            ],
            [
              79.12510249339104,
              21.224277498296857
            ],
            [
              79.12428551432052,
              21.22472846618614
            ],
            [
              79.12346853049749,
              21.22517942972648
            ],
            [
              79.12224013429557,
              21.226085858139154
            ],
            [
              79.1218287241077,
              21.22654132614628
            ],
            [
              79.12141731135831,
              21.226996792938944
            ],
            [
              79.12100589604731,
              21.227452258517076
            ],
            [
              79.12059447817461,
              21.22790772288059
            ],
            [
              79.11935437606652,
              21.229734090240843
            ],
            [
              79.1189371118445,
              21.23064953100905
            ],
            [
              79.11851984207743,
              21.231564970268018
            ],
            [
              79.11851400566191,
              21.232024951478632
            ],
            [
              79.1185081690896,
              21.23248493266267
            ],
            [
              79.11850233236046,
              21.232944913820102
            ],
            [
              79.11849649547455,
              21.23340489495096
            ],
            [
              79.1184906584318,
              21.23386487605523
            ],
            [
              79.11848482123226,
              21.234324857132894
            ],
            [
              79.11847898387589,
              21.234784838183984
            ],
            [
              79.11847314636272,
              21.23524481920847
            ],
            [
              79.11886708335028,
              21.236169305706795
            ],
            [
              79.1192668604716,
              21.236633810420898
            ],
            [
              79.11966664005676,
              21.237098314348618
            ],
            [
              79.12006642210586,
              21.23756281748989
            ],
            [
              79.12046620661897,
              21.238027319844647
            ],
            [
              79.12086599359617,
              21.2384918214128
            ],
            [
              79.12207119708197,
              21.239425339673964
            ],
            [
              79.12327641598787,
              21.240358850344084
            ],
            [
              79.12488145863462,
              21.24175684687939
            ],
            [
              79.12688635129857,
              21.243619319589218
            ],
            [
              79.13282015852494,
              21.255646388822814
            ],
            [
              79.13281435924652,
              21.256106372498
            ],
            [
              79.13320843313824,
              21.25703083401512
            ],
            [
              79.1336083089313,
              21.257495311094644
            ],
            [
              79.13400818719172,
              21.257959787385104
            ],
            [
              79.13481374503561,
              21.258428753550856
            ],
            [
              79.13561930818273,
              21.258897716213955
            ],
            [
              79.14773217009537,
              21.26363180018186
            ],
            [
              79.14934919824086,
              21.264109620450604
            ],
            [
              79.14975489437866,
              21.26411407629183
            ],
            [
              79.15016059062194,
              21.26411853115738
            ],
            [
              79.15178911941169,
              21.26367635266062
            ],
            [
              79.15260625063055,
              21.26322526300902
            ],
            [
              79.15301768377164,
              21.26276972226281
            ],
            [
              79.15342911434645,
              21.26231418030375
            ],
            [
              79.1538405423551,
              21.26185863713194
            ],
            [
              79.15425770208333,
              21.260943103754048
            ],
            [
              79.15426343621509,
              21.26048311473412
            ],
            [
              79.1542691701929,
              21.260023125687624
            ],
            [
              79.1542749040168,
              21.259563136614567
            ],
            [
              79.15428063768678,
              21.259103147514946
            ],
            [
              79.15388642363042,
              21.25817872549582
            ],
            [
              79.15348647852612,
              21.257714291811446
            ],
            [
              79.15308653588984,
              21.25724985733572
            ],
            [
              79.15268659572149,
              21.256785422068724
            ],
            [
              79.15188098264619,
              21.2563165378148
            ],
            [
              79.1506697010707,
              21.2558431990385
            ],
            [
              79.15026402737561,
              21.255838747047065
            ],
            [
              79.14985835378593,
              21.25583429408036
            ],
            [
              79.14945268030172,
              21.25582984013839
            ],
            [
              79.14904700692297,
              21.25582538522115
            ],
            [
              79.14097397599313,
              21.252516180727838
            ],
            [
              79.13976854239635,
              21.25158278242053
            ],
            [
              79.13542785454909,
              21.241873795989733
            ],
            [
              79.13543364145903,
              21.24141381085221
            ],
            [
              79.13543942821357,
              21.24095382568812
            ],
            [
              79.13544521481268,
              21.24049384049747
            ],
            [
              79.13545100125634,
              21.240033855280245
            ],
            [
              79.13506273651157,
              21.23864941435231
            ],
            [
              79.13426885885538,
              21.23726048610232
            ],
            [
              79.1327101104054,
              21.23218269666823
            ],
            [
              79.13271590284688,
              21.231722711717456
            ],
            [
              79.13272169513274,
              21.23126272674013
            ],
            [
              79.13272748726298,
              21.230802741736234
            ],
            [
              79.1417602328185,
              21.222161513611038
            ],
            [
              79.15058551106983,
              21.23007936367941
            ],
            [
              79.15097390804154,
              21.231463779158656
            ],
            [
              79.1513737807129,
              21.23192821443733
            ],
            [
              79.15177365584847,
              21.232392648926183
            ],
            [
              79.1521735334483,
              21.232857082625152
            ],
            [
              79.15257341351251,
              21.233321515534165
            ],
            [
              79.15337891001164,
              21.233790388738104
            ],
            [
              79.15378452408734,
              21.233794828848904
            ],
            [
              79.1541901382682,
              21.23379926798553
            ],
            [
              79.15459575255421,
              21.233803706147977
            ],
            [
              79.15500136694536,
              21.233808143336258
            ],
            [
              79.15540698144159,
              21.23381257955036
            ],
            [
              79.15581259604289,
              21.23381701479029
            ]
          ]
        ]
      }
    },
    {
      "type": "Feature",
      "properties": {
        "tiger_id": "T21",
        "type": "range",
        "utilization": 95,
        "area_km2": 23.96,
        "bandwidth_m": 500,
        "independent_detections": 7
      },
      "geometry": {
        "type": "Polygon",
        "coordinates": [
          [
            [
              79.1517201960896,
              21.269196209331675
            ],
            [
              79.15212590670926,
              21.269200660478
            ],
            [
              79.15253161743426,
              21.269205110648393
            ],
            [
              79.15375448840325,
              21.268758466867368
            ],
            [
              79.15497735261042,
              21.26831181364474
            ],
            [
              79.1562059402008,
              21.267405161833597
            ],
            [
              79.15743451301293,
              21.266498499871712
            ],
            [
              79.15784594219856,
              21.266042947076773
            ],
            [
              79.1590859346127,
              21.264216291348653
            ],
            [
              79.15950307081069,
              21.263300743345873
            ],
            [
              79.15992591843593,
              21.261925203429893
            ],
            [
              79.15993163525405,
              21.261465212991833
            ],
            [
              79.15993735191873,
              21.261005222527217
            ],
            [
              79.15994306842991,
              21.26054523203605
            ],
            [
              79.15994878478767,
              21.260085241518333
            ],
            [
              79.15995450099196,
              21.25962525097406
            ],
            [
              79.15996021704281,
              21.259165260403236
            ],
            [
              79.1599659329402,
              21.258705269805873
            ],
            [
              79.15997164868413,
              21.258245279181946
            ],
            [
              79.1595831163652,
              21.25686087738112
            ],
            [
              79.1591888729801,
              21.255936465569004
            ],
            [
              79.15878891567445,
              21.255472043590174
            ],
            [
              79.15838896083665,
              21.255007620819487
            ],
            [
              79.15798900846664,
              21.254543197257032
            ],
            [
              79.15758905856433,
              21.25407877290288
            ],
            [
              79.15718911112964,
              21.253614347757082
            ],
            [
              79.1567891661625,
              21.253149921819716
            ],
            [
              79.15638922366281,
              21.25268549509086
            ],
            [
              79.15696081832817,
              21.239350207200292
            ],
            [
              79.15858905370095,
              21.23890794045077
            ],
            [
              79.15940602399996,
              21.238456805123448
            ],
            [
              79.16022298953709,
              21.238005665452153
            ],
            [
              79.16103995031231,
              21.23755452143717
            ],
            [
              79.16226823365244,
              21.236647801069854
            ],
            [
              79.16267955841704,
              21.23619222785052
            ],
            [
              79.16309088061954,
              21.235736653420854
            ],
            [
              79.16391921379577,
              21.23436550798384
            ],
            [
              79.16433622179723,
              21.23344993668773
            ],
            [
              79.16475322426481,
              21.232534363892757
            ],
            [
              79.16475891744389,
              21.23207437060391
            ],
            [
              79.16476461047003,
              21.231614377288555
            ],
            [
              79.16477030334319,
              21.231154383946684
            ],
            [
              79.16477599606343,
              21.230694390578307
            ],
            [
              79.16478168863071,
              21.23023439718341
            ],
            [
              79.16478738104506,
              21.229774403761986
            ],
            [
              79.16479307330646,
              21.229314410314064
            ],
            [
              79.16479876541491,
              21.228854416839628
            ],
            [
              79.16480445737044,
              21.22839442333868
            ],
            [
              79.16481014917304,
              21.22793442981122
            ],
            [
              79.1644216268583,
              21.226550036936253
            ],
            [
              79.16402741741108,
              21.225625636953968
            ],
            [
              79.16362751798057,
              21.225161229709606
            ],
            [
              79.16322762101368,
              21.224696821674357
            ],
            [
              79.16282772651029,
              21.224232412848288
            ],
            [
              79.16242783447034,
              21.223768003231495
            ],
            [
              79.16202794489377,
              21.223303592824006
            ],
            [
              79.16162805778046,
              21.222839181625925
            ],
            [
              79.1608225885708,
              21.222370349682926
            ],
            [
              79.16001712465008,
              21.221901514238365
            ],
            [
              79.15921166601827,
              21.221432675292526
            ],
            [
              79.14999800764713,
              21.212130857088084
            ],
            [
              79.14959818779013,
              21.211666421730122
            ],
            [
              79.1483930055412,
              21.21073310115126
            ],
            [
              79.14718783868308,
              21.20979977297591
            ],
            [
              79.14597694270434,
              21.209326426877553
            ],
            [
              79.14476605504997,
              21.208853072630465
            ],
            [
              79.14436051120612,
              21.208848615826373
            ],
            [
              79.14395496746792,
              21.208844158049384
            ],
            [
              79.14354942383538,
              21.208839699299496
            ],
            [
              79.14314388030853,
              21.208835239576707
            ],
            [
              79.14273833688739,
              21.208830778881033
            ],
            [
              79.14233279357201,
              21.20882631721245
            ],
            [
              79.14192725036236,
              21.208821854570974
            ],
            [
              79.1415217072585,
              21.208817390956618
            ],
            [
              79.14111616426045,
              21.208812926369358
            ],
            [
              79.14071062136823,
              21.208808460809212
            ],
            [
              79.14030507858186,
              21.20880399427618
            ],
            [
              79.13989953590136,
              21.208799526770253
            ],
            [
              79.13949399332677,
              21.208795058291443
            ],
            [
              79.13827159788706,
              21.209241634677703
            ],
            [
              79.13704919571752,
              21.209688201644518
            ],
            [
              79.13582101047265,
              21.21059474613453
            ],
            [
              79.13459281050342,
              21.211501280486456
            ],
            [
              79.12313277965504,
              21.219655123274464
            ],
            [
              79.12231582205163,
              21.220106083298607
            ],
            [
              79.12149885969735,
              21.220557038974345
            ],
            [
              79.12068189259223,
              21.221007990301402
            ],
            [
              79.11863070418325,
              21.22282532221515
            ],
            [
              79.11821929354358,
              21.2232807814312
            ],
            [
              79.11780788034277,
              21.223736239432537
            ],
            [
              79.11739646458078,
              21.224191696219115
            ],
            [
              79.11698504625751,
              21.224647151790844
            ],
            [
              79.1165736253729,
              21.22510260614765
            ],
            [
              79.11492207006744,
              21.227384391934557
            ],
            [
              79.11367605581009,
              21.22967069286582
            ],
            [
              79.11325290548142,
              21.23104609685976
            ],
            [
              79.1128238919881,
              21.23288147864845
            ],
            [
              79.11281803751164,
              21.23334145827531
            ],
            [
              79.1128121828779,
              21.233801437875556
            ],
            [
              79.11280632808689,
              21.234261417449204
            ],
            [
              79.11318266401088,
              21.23656585319409
            ],
            [
              79.11357656975689,
              21.237490349727285
            ],
            [
              79.11397048000856,
              21.23841484560999
            ],
            [
              79.11437024625992,
              21.238879361130866
            ],
            [
              79.1147700149753,
              21.239343875865785
            ],
            [
              79.1151697861548,
              21.23980838981471
            ],
            [
              79.11556955979847,
              21.240272902977562
            ],
            [
              79.1159693359064,
              21.24073741535426
            ],
            [
              79.11636911447869,
              21.241201926944772
            ],
            [
              79.11676889551538,
              21.241666437748997
            ],
            [
              79.11716867901659,
              21.24213094776686
            ],
            [
              79.11877367690381,
              21.243528999347056
            ],
            [
              79.1199789042495,
              21.244462534105207
            ],
            [
              79.12674095218853,
              21.255118880786995
            ],
            [
              79.12712335058899,
              21.256963317911936
            ],
            [
              79.12751157323487,
              21.258347772360768
            ],
            [
              79.12790561775765,
              21.259272244052344
            ],
            [
              79.12830548131939,
              21.259736732825864
            ],
            [
              79.12870534734861,
              21.26020122081082
            ],
            [
              79.12910521584544,
              21.26066570800713
            ],
            [
              79.12950508680994,
              21.261130194414733
            ],
            [
              79.12990496024217,
              21.26159468003357
            ],
            [
              79.13030483614223,
              21.262059164863555
            ],
            [
              79.13151028419622,
              21.262992631689603
            ],
            [
              79.13231585918726,
              21.26346161097181
            ],
            [
              79.13352713138322,
              21.26393508161874
            ],
            [
              79.14604602057612,
              21.268673804377297
            ],
            [
              79.14725738623328,
              21.26914718230984
            ],
            [
              79.14766309569254,
              21.26915164419152
            ],
            [
              79.14806880525738,
              21.269156105097263
            ],
            [
              79.14847451492781,
              21.269160565027057
            ],
            [
              79.14888022470382,
              21.26916502398093
            ],
            [
              79.14928593458536,
              21.269169481958862
            ],
            [
              79.14969164457241,
              21.26917393896085
            ],
            [
              79.15009735466496,
              21.2691783949869
            ],
            [
              79.15050306486297,
              21.269182850037005
            ],
            [
              79.15090877516643,
              21.26918730411117
            ],
            [
              79.15131448557531,
              21.26919175720939
            ],
            [
              79.1517201960896,
              21.269196209331675
            ]
          ]
        ]
      }
    },
    {
      "type": "Feature",
      "properties": {
        "tiger_id": "T21",
        "type": "detection",
        "camera_id": "CAM_01",
        "timestamp": "2026-08-02T21:15:00",
        "hour": 21,
        "month": 8,
        "is_night": true
      },
      "geometry": {
        "type": "Point",
        "coordinates": [
          79.123,
          21.234
        ]
      }
    },
    {
      "type": "Feature",
      "properties": {
        "tiger_id": "T21",
        "type": "detection",
        "camera_id": "CAM_02",
        "timestamp": "2026-08-05T22:30:00",
        "hour": 22,
        "month": 8,
        "is_night": true
      },
      "geometry": {
        "type": "Point",
        "coordinates": [
          79.131,
          21.241
        ]
      }
    },
    {
      "type": "Feature",
      "properties": {
        "tiger_id": "T21",
        "type": "detection",
        "camera_id": "CAM_04",
        "timestamp": "2026-08-07T20:40:00",
        "hour": 20,
        "month": 8,
        "is_night": true
      },
      "geometry": {
        "type": "Point",
        "coordinates": [
          79.15,
          21.26
        ]
      }
    },
    {
      "type": "Feature",
      "properties": {
        "tiger_id": "T21",
        "type": "detection",
        "camera_id": "CAM_05",
        "timestamp": "2026-08-12T19:20:00",
        "hour": 19,
        "month": 8,
        "is_night": true
      },
      "geometry": {
        "type": "Point",
        "coordinates": [
          79.137,
          21.255
        ]
      }
    },
    {
      "type": "Feature",
      "properties": {
        "tiger_id": "T21",
        "type": "detection",
        "camera_id": "CAM_07",
        "timestamp": "2026-08-15T02:10:00",
        "hour": 2,
        "month": 8,
        "is_night": true
      },
      "geometry": {
        "type": "Point",
        "coordinates": [
          79.128,
          21.228
        ]
      }
    },
    {
      "type": "Feature",
      "properties": {
        "tiger_id": "T21",
        "type": "detection",
        "camera_id": "CAM_09",
        "timestamp": "2026-08-20T00:40:00",
        "hour": 0,
        "month": 8,
        "is_night": true
      },
      "geometry": {
        "type": "Point",
        "coordinates": [
          79.155,
          21.23
        ]
      }
    },
    {
      "type": "Feature",
      "properties": {
        "tiger_id": "T21",
        "type": "detection",
        "camera_id": "CAM_10",
        "timestamp": "2026-08-23T22:20:00",
        "hour": 22,
        "month": 8,
        "is_night": true
      },
      "geometry": {
        "type": "Point",
        "coordinates": [
          79.142,
          21.218
        ]
      }
    },
    {
      "type": "Feature",
      "properties": {
        "tiger_id": "T35",
        "type": "core",
        "utilization": 50,
        "area_km2": 7.58,
        "bandwidth_m": 500,
        "independent_detections": 7
      },
      "geometry": {
        "type": "Polygon",
        "coordinates": [
          [
            [
              79.13451949242734,
              21.221262719964983
            ],
            [
              79.12420917531378,
              21.230557154353658
            ],
            [
              79.12378451012208,
              21.230552431740872
            ],
            [
              79.12335984504752,
              21.230547708060413
            ],
            [
              79.12293518009015,
              21.230542983312283
            ],
            [
              79.12251051524996,
              21.230538257496498
            ],
            [
              79.12208585052703,
              21.230533530613048
            ],
            [
              79.12166118592135,
              21.230528802661926
            ],
            [
              79.12080643832171,
              21.23094695164036
            ],
            [
              79.12037635274685,
              21.23136982833837
            ],
            [
              79.11994626470833,
              21.231792703737096
            ],
            [
              79.1195161742061,
              21.23221557783647
            ],
            [
              79.11908065693146,
              21.233066058187905
            ],
            [
              79.1186397084026,
              21.2343441443403
            ],
            [
              79.11641310142788,
              21.24244497239606
            ],
            [
              79.11596665932463,
              21.24415065266712
            ],
            [
              79.1159612227915,
              21.244578258866778
            ],
            [
              79.11595578612264,
              21.245005865043442
            ],
            [
              79.11636418364341,
              21.24629342913383
            ],
            [
              79.11677802243912,
              21.24715338632819
            ],
            [
              79.11719729965259,
              21.24758573645077
            ],
            [
              79.11804129300398,
              21.248022827532825
            ],
            [
              79.11888529158607,
              21.248459914735186
            ],
            [
              79.11931000687069,
              21.248464653475793
            ],
            [
              79.11973472227282,
              21.248469391147765
            ],
            [
              79.1201594377924,
              21.248474127751077
            ],
            [
              79.12058415342939,
              21.24847886328575
            ],
            [
              79.1210088691838,
              21.248483597751786
            ],
            [
              79.12143358505557,
              21.24848833114916
            ],
            [
              79.13281471888486,
              21.255457488300014
            ],
            [
              79.13322867777683,
              21.256317413148047
            ],
            [
              79.13364264114594,
              21.257177337249477
            ],
            [
              79.13406199707089,
              21.25760965064264
            ],
            [
              79.13448135542743,
              21.258041963150756
            ],
            [
              79.13490071621565,
              21.258474274773768
            ],
            [
              79.13574482866974,
              21.258911285057497
            ],
            [
              79.13616957802037,
              21.258915983534163
            ],
            [
              79.13659432748746,
              21.25892068094157
            ],
            [
              79.13701907707097,
              21.258925377279713
            ],
            [
              79.1374438267709,
              21.258930072548598
            ],
            [
              79.13786857658721,
              21.258934766748222
            ],
            [
              79.13829332651986,
              21.25893945987858
            ],
            [
              79.13871807656885,
              21.258944151939684
            ],
            [
              79.13914282673413,
              21.258948842931517
            ],
            [
              79.13956757701568,
              21.258953532854083
            ],
            [
              79.13999232741348,
              21.25895822170739
            ],
            [
              79.14041707792751,
              21.25896290949142
            ],
            [
              79.14169669646694,
              21.258549354652043
            ],
            [
              79.14297630856848,
              21.258135789547623
            ],
            [
              79.14511076644861,
              21.25730395400516
            ],
            [
              79.14639571226978,
              21.25646274839598
            ],
            [
              79.14682580797596,
              21.256039806374094
            ],
            [
              79.14725590121502,
              21.255616863054417
            ],
            [
              79.14768599198705,
              21.25519391843702
            ],
            [
              79.14811608029211,
              21.254770972521996
            ],
            [
              79.14854616613029,
              21.25434802530939
            ],
            [
              79.14898159337858,
              21.253497462998027
            ],
            [
              79.14898693712217,
              21.253069849173826
            ],
            [
              79.1489922807324,
              21.252642235326654
            ],
            [
              79.14899762420924,
              21.252214621456535
            ],
            [
              79.1490029675527,
              21.251787007563454
            ],
            [
              79.14900831076281,
              21.251359393647423
            ],
            [
              79.14901365383952,
              21.25093177970843
            ],
            [
              79.14859961247588,
              21.250071887520807
            ],
            [
              79.14818023059962,
              21.249639608408852
            ],
            [
              79.14776085115406,
              21.249207328410712
            ],
            [
              79.14734147413911,
              21.24877504752647
            ],
            [
              79.146497377913,
              21.248338096582795
            ],
            [
              79.14565328691295,
              21.24790114175284
            ],
            [
              79.14522856684276,
              21.247896469476288
            ],
            [
              79.14480384688845,
              21.247891796131064
            ],
            [
              79.14437912705003,
              21.24788712171718
            ],
            [
              79.14395440732751,
              21.24788244623462
            ],
            [
              79.14352968772096,
              21.2478777696834
            ],
            [
              79.14310496823036,
              21.247873092063507
            ],
            [
              79.14268024885575,
              21.24786841337495
            ],
            [
              79.1422555295972,
              21.247863733617724
            ],
            [
              79.1405512870986,
              21.248272615942717
            ],
            [
              79.1392717573094,
              21.24868616883335
            ],
            [
              79.13841694285675,
              21.24910440221686
            ],
            [
              79.13756212383856,
              21.24952263088928
            ],
            [
              79.13670730025488,
              21.24994085485033
            ],
            [
              79.13585247210571,
              21.25035907409971
            ],
            [
              79.12448237298237,
              21.242534919808715
            ],
            [
              79.12538044800549,
              21.23869588721432
            ],
            [
              79.12581594976174,
              21.237845389670014
            ],
            [
              79.12625144620185,
              21.23699489054974
            ],
            [
              79.12668693732611,
              21.23614438985365
            ],
            [
              79.12669234056615,
              21.235716780588046
            ],
            [
              79.12669774367127,
              21.235289171299463
            ],
            [
              79.12670314664146,
              21.234861561987927
            ],
            [
              79.12670854947673,
              21.234433952653415
            ],
            [
              79.12671395217707,
              21.23400634329594
            ],
            [
              79.12671935474249,
              21.2335787339155
            ],
            [
              79.12672475717298,
              21.233151124512084
            ],
            [
              79.12673015946856,
              21.232723515085706
            ],
            [
              79.13744903484057,
              21.224716453515608
            ],
            [
              79.13871762511401,
              21.22515812407718
            ],
            [
              79.1391422784951,
              21.225162807978297
            ],
            [
              79.13956693199236,
              21.22516749081202
            ],
            [
              79.1399915856058,
              21.225172172578333
            ],
            [
              79.14041623933535,
              21.22517685327723
            ],
            [
              79.14084089318101,
              21.225181532908724
            ],
            [
              79.14126554714272,
              21.225186211472803
            ],
            [
              79.15138265935319,
              21.23128479629838
            ],
            [
              79.15179667398107,
              21.232144680810126
            ],
            [
              79.152216021866,
              21.23257694892865
            ],
            [
              79.15306005139,
              21.233013866682498
            ],
            [
              79.15390408613447,
              21.233450780551912
            ],
            [
              79.15432876691423,
              21.23345542797177
            ],
            [
              79.15475344780926,
              21.233460074323727
            ],
            [
              79.15517812881949,
              21.233464719607788
            ],
            [
              79.15560280994494,
              21.23346936382395
            ],
            [
              79.15602749118555,
              21.233474006972212
            ],
            [
              79.15688216947386,
              21.233055673317562
            ],
            [
              79.15773684319757,
              21.23263733495935
            ],
            [
              79.15816683409467,
              21.232214355463597
            ],
            [
              79.158602132567,
              21.23136375742458
            ],
            [
              79.15860744247323,
              21.230936140153574
            ],
            [
              79.15861275224684,
              21.230508522859637
            ],
            [
              79.15861806188784,
              21.230080905542785
            ],
            [
              79.1586233713962,
              21.22965328820301
            ],
            [
              79.15862868077197,
              21.229225670840314
            ],
            [
              79.15863399001512,
              21.228798053454685
            ],
            [
              79.15821994207003,
              21.22793818320237
            ],
            [
              79.15780058744214,
              21.22750592947246
            ],
            [
              79.15738123524193,
              21.22707367485651
            ],
            [
              79.14773680451843,
              21.217131574302336
            ],
            [
              79.14732284895044,
              21.216271683159185
            ],
            [
              79.14690889785184,
              21.215411791268608
            ],
            [
              79.14648961092401,
              21.214979513799943
            ],
            [
              79.14607032642186,
              21.21454723544718
            ],
            [
              79.14565104434539,
              21.214114956210395
            ],
            [
              79.14523176469449,
              21.213682676089633
            ],
            [
              79.1443878667966,
              21.213245727942958
            ],
            [
              79.14311935501144,
              21.212804105678842
            ],
            [
              79.14269473602394,
              21.21279943437281
            ],
            [
              79.14227011715238,
              21.212794762000044
            ],
            [
              79.14184549839676,
              21.212790088560542
            ],
            [
              79.14142087975713,
              21.212785414054306
            ],
            [
              79.14099626123351,
              21.212780738481346
            ],
            [
              79.1405716428259,
              21.21277606184166
            ],
            [
              79.14014702453436,
              21.21277138413524
            ],
            [
              79.1397224063589,
              21.2127667053621
            ],
            [
              79.13844318955464,
              21.21318027594504
            ],
            [
              79.13758858625414,
              21.21359852166478
            ],
            [
              79.13715859942504,
              21.214021449231495
            ],
            [
              79.13672861013481,
              21.214444375501767
            ],
            [
              79.13629861838342,
              21.214867300475515
            ],
            [
              79.13586862417078,
              21.215290224152692
            ],
            [
              79.13543862749687,
              21.2157131465332
            ],
            [
              79.13500862836159,
              21.216136067616986
            ],
            [
              79.13457325158754,
              21.21698659956969
            ],
            [
              79.13412711576672,
              21.218692353913465
            ],
            [
              79.13412173869587,
              21.21911996586095
            ],
            [
              79.13411636149071,
              21.219547577785487
            ],
            [
              79.13451949242734,
              21.221262719964983
            ]
          ]
        ]
      }
    },
    {
      "type": "Feature",
      "properties": {
        "tiger_id": "T35",
        "type": "range",
        "utilization": 95,
        "area_km2": 24.04,
        "bandwidth_m": 500,
        "independent_detections": 7
      },
      "geometry": {
        "type": "Polygon",
        "coordinates": [
          [
            [
              79.13864819099686,
              21.26450309354207
            ],
            [
              79.1390729570878,
              21.264507785876724
            ],
            [
              79.13949772329504,
              21.264512477141807
            ],
            [
              79.14120215855309,
              21.264103620132325
            ],
            [
              79.14290658573388,
              21.263694745161654
            ],
            [
              79.14632076988738,
              21.262449328638752
            ],
            [
              79.14717564555697,
              21.262031059773957
            ],
            [
              79.14803051665574,
              21.261612786197052
            ],
            [
              79.14888538318365,
              21.261194507908293
            ],
            [
              79.14974024514069,
              21.26077622490797
            ],
            [
              79.1510251993656,
              21.259934984585882
            ],
            [
              79.15145529373682,
              21.25951203067787
            ],
            [
              79.15188538564043,
              21.25908907547238
            ],
            [
              79.15231547507653,
              21.258666118969487
            ],
            [
              79.1527455620452,
              21.258243161169258
            ],
            [
              79.15317564654647,
              21.257820202071773
            ],
            [
              79.15404113826109,
              21.256546665113643
            ],
            [
              79.15448187111633,
              21.255268471936436
            ],
            [
              79.15492259554215,
              21.25399027686904
            ],
            [
              79.1549279222759,
              21.253562661631875
            ],
            [
              79.1549332488767,
              21.253135046371757
            ],
            [
              79.15493857534456,
              21.25270743108869
            ],
            [
              79.15494390167945,
              21.252279815782682
            ],
            [
              79.1549492278814,
              21.25185220045373
            ],
            [
              79.1549545539504,
              21.251424585101834
            ],
            [
              79.15495987988645,
              21.250996969726984
            ],
            [
              79.15496520568956,
              21.250569354329194
            ],
            [
              79.15497053135974,
              21.250141738908464
            ],
            [
              79.16021593872733,
              21.23822417142162
            ],
            [
              79.16150063375353,
              21.23738283052877
            ],
            [
              79.16193062958922,
              21.236959841877567
            ],
            [
              79.1623606229606,
              21.236536851931337
            ],
            [
              79.16279061386776,
              21.236113860690143
            ],
            [
              79.16322060231074,
              21.235690868154062
            ],
            [
              79.16365588471103,
              21.23484025603391
            ],
            [
              79.16409116180417,
              21.23398964234648
            ],
            [
              79.16452643359044,
              21.233139027091916
            ],
            [
              79.16496699189679,
              21.231860791515103
            ],
            [
              79.16497228359121,
              21.231433172736924
            ],
            [
              79.16497757515347,
              21.23100555393583
            ],
            [
              79.16498286658356,
              21.23057793511182
            ],
            [
              79.16498815788151,
              21.230150316264904
            ],
            [
              79.16499344904729,
              21.229722697395083
            ],
            [
              79.1649987400809,
              21.229295078502336
            ],
            [
              79.16500403098239,
              21.228867459586674
            ],
            [
              79.1650093217517,
              21.228439840648118
            ],
            [
              79.16460052795675,
              21.227152364500462
            ],
            [
              79.16419174042274,
              21.225864887690143
            ],
            [
              79.1633583015181,
              21.22457278843156
            ],
            [
              79.16293893956212,
              21.224140546920086
            ],
            [
              79.16251958003343,
              21.22370830452218
            ],
            [
              79.16210022293191,
              21.223276061237907
            ],
            [
              79.16168086825755,
              21.22284381706733
            ],
            [
              79.16041751669658,
              21.221974697422205
            ],
            [
              79.15118713776413,
              21.212892657812596
            ],
            [
              79.15076784399457,
              21.212460390463672
            ],
            [
              79.15034855265043,
              21.212028122230297
            ],
            [
              79.14992926373165,
              21.211595853112556
            ],
            [
              79.14950997723815,
              21.211163583110515
            ],
            [
              79.14909069316988,
              21.210731312224244
            ],
            [
              79.14867141152678,
              21.21029904045382
            ],
            [
              79.14740824502651,
              21.209429835511106
            ],
            [
              79.14656436295877,
              21.208992899344913
            ],
            [
              79.14529587863727,
              21.208551295424353
            ],
            [
              79.14360279676781,
              21.20810501446007
            ],
            [
              79.14317819109985,
              21.20810034535391
            ],
            [
              79.14275358554774,
              21.208095675181276
            ],
            [
              79.14232898011156,
              21.208091003942165
            ],
            [
              79.14190437479131,
              21.208086331636586
            ],
            [
              79.141479769587,
              21.20808165826454
            ],
            [
              79.1410551644987,
              21.208076983826007
            ],
            [
              79.1406305595264,
              21.208072308321018
            ],
            [
              79.14020595467015,
              21.208067631749554
            ],
            [
              79.13978134992996,
              21.208062954111625
            ],
            [
              79.13935674530585,
              21.208058275407232
            ],
            [
              79.13765296402786,
              21.208467163273355
            ],
            [
              79.13679838709554,
              21.208885407045486
            ],
            [
              79.13594380560914,
              21.209303646115167
            ],
            [
              79.13508921956873,
              21.209721880482114
            ],
            [
              79.13380464414975,
              21.210563029362834
            ],
            [
              79.1333746568645,
              21.210985947283
            ],
            [
              79.1329446671186,
              21.211408863906474
            ],
            [
              79.13251467491195,
              21.2118317792332
            ],
            [
              79.13208468024446,
              21.212254693263095
            ],
            [
              79.1316546831161,
              21.21267760599609
            ],
            [
              79.1307892962448,
              21.213951038964957
            ],
            [
              79.13035390365472,
              21.214801558924396
            ],
            [
              79.12991850575625,
              21.215652077310285
            ],
            [
              79.12003299176577,
              21.22495097571468
            ],
            [
              79.11875362464829,
              21.22536438457392
            ],
            [
              79.11789890110116,
              21.22578252065628
            ],
            [
              79.11661409241675,
              21.22662351957984
            ],
            [
              79.11618400937166,
              21.227046385831894
            ],
            [
              79.1157539238635,
              21.227469250784456
            ],
            [
              79.11532383589221,
              21.22789211443746
            ],
            [
              79.11489374545776,
              21.22831497679082
            ],
            [
              79.11446365256005,
              21.22873783784448
            ],
            [
              79.11402811930195,
              21.229588304079527
            ],
            [
              79.1135925807276,
              21.230438768736455
            ],
            [
              79.11315703683664,
              21.231289231815115
            ],
            [
              79.11048370442845,
              21.241095633646744
            ],
            [
              79.11003720075453,
              21.242801293688114
            ],
            [
              79.11003174749759,
              21.243228898490717
            ],
            [
              79.11002629410447,
              21.243656503270316
            ],
            [
              79.11002084057522,
              21.244084108026925
            ],
            [
              79.1100153869098,
              21.244511712760527
            ],
            [
              79.11000993310822,
              21.244939317471133
            ],
            [
              79.11000447917048,
              21.245366922158738
            ],
            [
              79.1099990250966,
              21.245794526823342
            ],
            [
              79.10999357088654,
              21.24622213146494
            ],
            [
              79.10998811654032,
              21.24664973608354
            ],
            [
              79.11039646427207,
              21.247937310878292
            ],
            [
              79.11081027095562,
              21.248797280336287
            ],
            [
              79.11122408210892,
              21.24965724905301
            ],
            [
              79.11205716754917,
              21.2509495793723
            ],
            [
              79.11247643979635,
              21.25138194083408
            ],
            [
              79.11289571447392,
              21.25181430141358
            ],
            [
              79.11331499158194,
              21.252246661110714
            ],
            [
              79.11457828054643,
              21.25311612950432
            ],
            [
              79.11542229520511,
              21.25355323520321
            ],
            [
              79.11669104559081,
              21.253995083533095
            ],
            [
              79.1183845364356,
              21.25444166518658
            ],
            [
              79.12976594360089,
              21.261411046902943
            ],
            [
              79.13018529835388,
              21.26184336979347
            ],
            [
              79.130604655539,
              21.262275691799164
            ],
            [
              79.13102401515636,
              21.262708012919937
            ],
            [
              79.13186813764035,
              21.26314504336183
            ],
            [
              79.13271226535721,
              21.263582069917554
            ],
            [
              79.1335563983069,
              21.26401909258683
            ],
            [
              79.13525006645907,
              21.264465516360392
            ],
            [
              79.1356748316187,
              21.264470217251578
            ],
            [
              79.13609959689485,
              21.264474917073205
            ],
            [
              79.13652436228747,
              21.264479615825262
            ],
            [
              79.13694912779656,
              21.264484313507765
            ],
            [
              79.13737389342205,
              21.264489010120684
            ],
            [
              79.13779865916396,
              21.26449370566405
            ],
            [
              79.13822342502225,
              21.26449840013784
            ],
            [
              79.13864819099686,
              21.26450309354207
            ]
          ]
        ]
      }
    },
    {
      "type": "Feature",
      "properties": {
        "tiger_id": "T35",
        "type": "detection",
        "camera_id": "CAM_01",
        "timestamp": "2026-08-04T23:40:00",
        "hour": 23,
        "month": 8,
        "is_night": true
      },
      "geometry": {
        "type": "Point",
        "coordinates": [
          79.123,
          21.234
        ]
      }
    },
    {
      "type": "Feature",
      "properties": {
        "tiger_id": "T35",
        "type": "detection",
        "camera_id": "CAM_03",
        "timestamp": "2026-08-05T22:10:00",
        "hour": 22,
        "month": 8,
        "is_night": true
      },
      "geometry": {
        "type": "Point",
        "coordinates": [
          79.145,
          21.252
        ]
      }
    },
    {
      "type": "Feature",
      "properties": {
        "tiger_id": "T35",
        "type": "detection",
        "camera_id": "CAM_05",
        "timestamp": "2026-08-10T23:40:00",
        "hour": 23,
        "month": 8,
        "is_night": true
      },
      "geometry": {
        "type": "Point",
        "coordinates": [
          79.137,
          21.255
        ]
      }
    },
    {
      "type": "Feature",
      "properties": {
        "tiger_id": "T35",
        "type": "detection",
        "camera_id": "CAM_06",
        "timestamp": "2026-08-14T21:30:00",
        "hour": 21,
        "month": 8,
        "is_night": true
      },
      "geometry": {
        "type": "Point",
        "coordinates": [
          79.12,
          21.245
        ]
      }
    },
    {
      "type": "Feature",
      "properties": {
        "tiger_id": "T35",
        "type": "detection",
        "camera_id": "CAM_08",
        "timestamp": "2026-08-18T21:30:00",
        "hour": 21,
        "month": 8,
        "is_night": true
      },
      "geometry": {
        "type": "Point",
        "coordinates": [
          79.14,
          21.22
        ]
      }
    },
    {
      "type": "Feature",
      "properties": {
        "tiger_id": "T35",
        "type": "detection",
        "camera_id": "CAM_09",
        "timestamp": "2026-08-21T02:00:00",
        "hour": 2,
        "month": 8,
        "is_night": true
      },
      "geometry": {
        "type": "Point",
        "coordinates": [
          79.155,
          21.23
        ]
      }
    },
    {
      "type": "Feature",
      "properties": {
        "tiger_id": "T35",
        "type": "detection",
        "camera_id": "CAM_10",
        "timestamp": "2026-08-24T01:10:00",
        "hour": 1,
        "month": 8,
        "is_night": true
      },
      "geometry": {
        "type": "Point",
        "coordinates": [
          79.142,
          21.218
        ]
      }
    }
  ]
}